[{"OBJECT_NAME":"STARLINK-2364","OBJECT_ID":"2021-021AW","EPOCH":"2025-09-14T05:02:00.898368","MEAN_MOTION":15.06403959,"ECCENTRICITY":0.00014381,"INCLINATION":53.0558,"RA_OF_ASC_NODE":333.8712,"ARG_OF_PERICENTER":88.6954,"MEAN_ANOMALY":271.42,"EPHEMERIS_TYPE":0,"CLASSIFICATION_TYPE":"U","NORAD_CAT_ID":47904,"ELEMENT_SET_NO":999,"REV_AT_EPOCH":24971,"BSTAR":0.00015778223,"MEAN_MOTION_DOT":2.07e-5,"MEAN_MOTION_DDOT":0},{"OBJECT_NAME":"STARLINK-2367","OBJECT_ID":"2021-021AZ","EPOCH":"2025-09-14T06:45:30.525120","MEAN_MOTION":15.06412789,"ECCENTRICITY":0.0001195,"INCLINATION":53.0561,"RA_OF_ASC_NODE":353.5485,"ARG_OF_PERICENTER":94.0117,"MEAN_ANOMALY":266.1009,"EPHEMERIS_TYPE":0,"CLASSIFICATION_TYPE":"U","NORAD_CAT_ID":47907,"ELEMENT_SET_NO":999,"REV_AT_EPOCH":24942,"BSTAR":0.00027961076,"MEAN_MOTION_DOT":3.887e-5,"MEAN_MOTION_DDOT":0},{"OBJECT_NAME":"STARLINK-2368","OBJECT_ID":"2021-021BA","EPOCH":"2025-09-13T13:25:12.466848","MEAN_MOTION":15.06404328,"ECCENTRICITY":0.00012803,"INCLINATION":53.0557,"RA_OF_ASC_NODE":356.7892,"ARG_OF_PERICENTER":90.2469,"MEAN_ANOMALY":269.8667,"EPHEMERIS_TYPE":0,"CLASSIFICATION_TYPE":"U","NORAD_CAT_ID":47908,"ELEMENT_SET_NO":999,"REV_AT_EPOCH":24934,"BSTAR":0.00026819883,"MEAN_MOTION_DOT":3.716e-5,"MEAN_MOTION_DDOT":0},{"OBJECT_NAME":"STARLINK-2370","OBJECT_ID":"2021-021BC","EPOCH":"2025-09-13T22:59:47.396544","MEAN_MOTION":15.06399171,"ECCENTRICITY":0.00012507,"INCLINATION":53.0561,"RA_OF_ASC_NODE":345.1594,"ARG_OF_PERICENTER":85.048,"MEAN_ANOMALY":275.0651,"EPHEMERIS_TYPE":0,"CLASSIFICATION_TYPE":"U","NORAD_CAT_ID":47910,"ELEMENT_SET_NO":999,"REV_AT_EPOCH":24956,"BSTAR":4.495229e-5,"MEAN_MOTION_DOT":3.88e-6,"MEAN_MOTION_DDOT":0},{"OBJECT_NAME":"STARLINK-2371","OBJECT_ID":"2021-021BD","EPOCH":"2025-09-14T00:36:01.608768","MEAN_MOTION":15.06400035,"ECCENTRICITY":0.00014601,"INCLINATION":53.0569,"RA_OF_ASC_NODE":359.9403,"ARG_OF_PERICENTER":91.9514,"MEAN_ANOMALY":268.1643,"EPHEMERIS_TYPE":0,"CLASSIFICATION_TYPE":"U","NORAD_CAT_ID":47911,"ELEMENT_SET_NO":999,"REV_AT_EPOCH":24919,"BSTAR":0.00019780551,"MEAN_MOTION_DOT":2.666e-5,"MEAN_MOTION_DDOT":0},{"OBJECT_NAME":"STARLINK-2378","OBJECT_ID":"2021-021BJ","EPOCH":"2025-09-14T06:21:38.046816","MEAN_MOTION":15.06417555,"ECCENTRICITY":0.00012586,"INCLINATION":53.0547,"RA_OF_ASC_NODE":333.6234,"ARG_OF_PERICENTER":90.4669,"MEAN_ANOMALY":269.6464,"EPHEMERIS_TYPE":0,"CLASSIFICATION_TYPE":"U","NORAD_CAT_ID":47916,"ELEMENT_SET_NO":999,"REV_AT_EPOCH":24972,"BSTAR":0.00044466226,"MEAN_MOTION_DOT":6.351e-5,"MEAN_MOTION_DDOT":0},{"OBJECT_NAME":"STARLINK-2405","OBJECT_ID":"2021-021BM","EPOCH":"2025-09-14T06:18:58.383936","MEAN_MOTION":15.0640954,"ECCENTRICITY":0.00010898,"INCLINATION":53.0551,"RA_OF_ASC_NODE":353.6286,"ARG_OF_PERICENTER":95.4138,"MEAN_ANOMALY":264.6976,"EPHEMERIS_TYPE":0,"CLASSIFICATION_TYPE":"U","NORAD_CAT_ID":47919,"ELEMENT_SET_NO":999,"REV_AT_EPOCH":24944,"BSTAR":0.0003355494,"MEAN_MOTION_DOT":4.721e-5,"MEAN_MOTION_DDOT":0},{"OBJECT_NAME":"STARLINK-1647","OBJECT_ID":"2021-024B","EPOCH":"2025-09-14T03:51:01.952064","MEAN_MOTION":15.06405897,"ECCENTRICITY":0.00011213,"INCLINATION":53.0563,"RA_OF_ASC_NODE":49.0899,"ARG_OF_PERICENTER":94.9054,"MEAN_ANOMALY":265.2063,"EPHEMERIS_TYPE":0,"CLASSIFICATION_TYPE":"U","NORAD_CAT_ID":47978,"ELEMENT_SET_NO":999,"REV_AT_EPOCH":24795,"BSTAR":4.7638474e-5,"MEAN_MOTION_DOT":4.28e-6,"MEAN_MOTION_DDOT":0},{"OBJECT_NAME":"STARLINK-2303","OBJECT_ID":"2021-024E","EPOCH":"2025-09-14T03:35:06.169344","MEAN_MOTION":15.0640043,"ECCENTRICITY":0.00011956,"INCLINATION":53.0558,"RA_OF_ASC_NODE":49.1386,"ARG_OF_PERICENTER":91.999,"MEAN_ANOMALY":268.1136,"EPHEMERIS_TYPE":0,"CLASSIFICATION_TYPE":"U","NORAD_CAT_ID":47981,"ELEMENT_SET_NO":999,"REV_AT_EPOCH":24795,"BSTAR":2.9837739e-5,"MEAN_MOTION_DOT":1.63e-6,"MEAN_MOTION_DDOT":0},{"OBJECT_NAME":"STARLINK-2273","OBJECT_ID":"2021-024S","EPOCH":"2025-09-14T01:06:29.335968","MEAN_MOTION":15.06403885,"ECCENTRICITY":0.00012489,"INCLINATION":53.0572,"RA_OF_ASC_NODE":9.6013,"ARG_OF_PERICENTER":85.8254,"MEAN_ANOMALY":274.2878,"EPHEMERIS_TYPE":0,"CLASSIFICATION_TYPE":"U","NORAD_CAT_ID":47993,"ELEMENT_SET_NO":999,"REV_AT_EPOCH":24849,"BSTAR":0.00015344661,"MEAN_MOTION_DOT":2.005e-5,"MEAN_MOTION_DDOT":0},{"OBJECT_NAME":"STARLINK-2266","OBJECT_ID":"2021-024W","EPOCH":"2025-09-13T15:12:41.056992","MEAN_MOTION":15.06399186,"ECCENTRICITY":0.00012926,"INCLINATION":53.057,"RA_OF_ASC_NODE":26.4528,"ARG_OF_PERICENTER":94.2123,"MEAN_ANOMALY":265.9013,"EPHEMERIS_TYPE":0,"CLASSIFICATION_TYPE":"U","NORAD_CAT_ID":47997,"ELEMENT_SET_NO":999,"REV_AT_EPOCH":24822,"BSTAR":9.1962986e-5,"MEAN_MOTION_DOT":1.089e-5,"MEAN_MOTION_DDOT":0},{"OBJECT_NAME":"STARLINK-2270","OBJECT_ID":"2021-024Z","EPOCH":"2025-09-14T02:52:00.618240","MEAN_MOTION":15.06396604,"ECCENTRICITY":0.00012054,"INCLINATION":53.056,"RA_OF_ASC_NODE":314.476,"ARG_OF_PERICENTER":90.8538,"MEAN_ANOMALY":269.2589,"EPHEMERIS_TYPE":0,"CLASSIFICATION_TYPE":"U","NORAD_CAT_ID":48000,"ELEMENT_SET_NO":999,"REV_AT_EPOCH":24922,"BSTAR":6.9279589e-5,"MEAN_MOTION_DOT":7.51e-6,"MEAN_MOTION_DDOT":0},{"OBJECT_NAME":"STARLINK-2153","OBJECT_ID":"2021-024AJ","EPOCH":"2025-09-14T01:25:03.618624","MEAN_MOTION":15.06398718,"ECCENTRICITY":0.00012596,"INCLINATION":53.0578,"RA_OF_ASC_NODE":29.5419,"ARG_OF_PERICENTER":93.9752,"MEAN_ANOMALY":266.1381,"EPHEMERIS_TYPE":0,"CLASSIFICATION_TYPE":"U","NORAD_CAT_ID":48009,"ELEMENT_SET_NO":999,"REV_AT_EPOCH":24816,"BSTAR":5.3434641e-5,"MEAN_MOTION_DOT":5.15e-6,"MEAN_MOTION_DDOT":0},{"OBJECT_NAME":"STARLINK-2226","OBJECT_ID":"2021-024AK","EPOCH":"2025-09-14T03:19:10.972416","MEAN_MOTION":15.0639891,"ECCENTRICITY":0.00013581,"INCLINATION":53.0562,"RA_OF_ASC_NODE":49.1907,"ARG_OF_PERICENTER":91.4835,"MEAN_ANOMALY":268.6309,"EPHEMERIS_TYPE":0,"CLASSIFICATION_TYPE":"U","NORAD_CAT_ID":48010,"ELEMENT_SET_NO":999,"REV_AT_EPOCH":24789,"BSTAR":7.1779842e-5,"MEAN_MOTION_DOT":7.88e-6,"MEAN_MOTION_DDOT":0},{"OBJECT_NAME":"STARLINK-2282","OBJECT_ID":"2021-024AT","EPOCH":"2025-09-14T06:00:02.000160","MEAN_MOTION":15.83201595,"ECCENTRICITY":0.00109419,"INCLINATION":53.0151,"RA_OF_ASC_NODE":318.2966,"ARG_OF_PERICENTER":327.8148,"MEAN_ANOMALY":222.3078,"EPHEMERIS_TYPE":0,"CLASSIFICATION_TYPE":"U","NORAD_CAT_ID":48018,"ELEMENT_SET_NO":999,"REV_AT_EPOCH":592,"BSTAR":0.00072308073,"MEAN_MOTION_DOT":0.00162015,"MEAN_MOTION_DDOT":0},{"OBJECT_NAME":"STARLINK-2285","OBJECT_ID":"2021-024AU","EPOCH":"2025-09-13T15:18:01.565568","MEAN_MOTION":15.06374265,"ECCENTRICITY":0.00012096,"INCLINATION":53.0559,"RA_OF_ASC_NODE":26.437,"ARG_OF_PERICENTER":85.3179,"MEAN_ANOMALY":274.7949,"EPHEMERIS_TYPE":0,"CLASSIFICATION_TYPE":"U","NORAD_CAT_ID":48019,"ELEMENT_SET_NO":999,"REV_AT_EPOCH":24816,"BSTAR":-0.00015441974,"MEAN_MOTION_DOT":-2.579e-5,"MEAN_MOTION_DDOT":0}]
