STARLINK-2364           
1 47904U 21021AW  25257.20973262  .00002070  00000+0  15778-3 0  9991
2 47904  53.0558 333.8712 0001438  88.6954 271.4200 15.06403959249716
STARLINK-2367           
1 47907U 21021AZ  25257.28160330  .00003887  00000+0  27961-3 0  9990
2 47907  53.0561 353.5485 0001195  94.0117 266.1009 15.06412789249428
STARLINK-2368           
1 47908U 21021BA  25256.55917207  .00003716  00000+0  26820-3 0  9997
2 47908  53.0557 356.7892 0001280  90.2469 269.8667 15.06404328249345
STARLINK-2370           
1 47910U 21021BC  25256.95818746  .00000388  00000+0  44952-4 0  9991
2 47910  53.0561 345.1594 0001250  85.0480 275.0651 15.06399171249561
STARLINK-2371           
1 47911U 21021BD  25257.02501862  .00002666  00000+0  19781-3 0  9991
2 47911  53.0569 359.9403 0001460  91.9514 268.1643 15.06400035249194
STARLINK-2378           
1 47916U 21021BJ  25257.26502369  .00006351  00000+0  44466-3 0  9998
2 47916  53.0547 333.6234 0001258  90.4669 269.6464 15.06417555249727
STARLINK-2405           
1 47919U 21021BM  25257.26317574  .00004721  00000+0  33555-3 0  9999
2 47919  53.0551 353.6286 0001089  95.4138 264.6976 15.06409540249449
STARLINK-1647           
1 47978U 21024B   25257.16043926  .00000428  00000+0  47638-4 0  9991
2 47978  53.0563  49.0899 0001121  94.9054 265.2063 15.06405897247950
STARLINK-2303           
1 47981U 21024E   25257.14937696  .00000163  00000+0  29838-4 0  9997
2 47981  53.0558  49.1386 0001195  91.9990 268.1136 15.06400430247958
STARLINK-2273           
1 47993U 21024S   25257.04617287  .00002005  00000+0  15345-3 0  9994
2 47993  53.0572   9.6013 0001248  85.8254 274.2878 15.06403885248497
STARLINK-2266           
1 47997U 21024W   25256.63380853  .00001089  00000+0  91963-4 0  9990
2 47997  53.0570  26.4528 0001292  94.2123 265.9013 15.06399186248222
STARLINK-2270           
1 48000U 21024Z   25257.11945160  .00000751  00000+0  69280-4 0  9990
2 48000  53.0560 314.4760 0001205  90.8538 269.2589 15.06396604249229
STARLINK-2153           
1 48009U 21024AJ  25257.05906966  .00000515  00000+0  53435-4 0  9996
2 48009  53.0578  29.5419 0001259  93.9752 266.1381 15.06398718248169
STARLINK-2226           
1 48010U 21024AK  25257.13832144  .00000788  00000+0  71780-4 0  9998
2 48010  53.0562  49.1907 0001358  91.4835 268.6309 15.06398910247899
STARLINK-2282           
1 48018U 21024AT  25257.25002315  .00162015  00000+0  72308-3 0  9996
2 48018  53.0151 318.2966 0010941 327.8148 222.3078 15.83201595  5920
STARLINK-2285           
1 48019U 21024AU  25256.63751812 -.00002579  00000+0 -15442-3 0  9997
2 48019  53.0559  26.4370 0001209  85.3179 274.7949 15.06374265248160
